CTC1_L_00016001-01
1 10000U 23418UC  26075.70028935  .00000000  00000+0  00000-0 0  9992
2 10000  50.0000   0.0000 0000000   0.0000   0.0000 15.80155680    18
CTC1_L_00016001-02
1 10001U 26864PD  26075.70028935  .00000000  00000+0  00000-0 0  9991
2 10001  50.0000   0.0000 0000000   0.0000  90.0000 15.80155680    18
CTC1_L_00016001-03
1 10002U 24025XK  26075.70028935  .00000000  00000+0  00000-0 0  9999
2 10002  50.0000   0.0000 0000000   0.0000 180.0000 15.80155680    19
CTC1_L_00016001-04
1 10003U 24413HP  26075.70028935  .00000000  00000+0  00000-0 0  9991
2 10003  50.0000   0.0000 0000000   0.0000 270.0000 15.80155680    10
CTC1_L_00016002-01
1 10004U 26946HT  26075.70028935  .00000000  00000+0  00000-0 0  9995
2 10004  50.0000  12.0000 0000000   0.0000  12.0000 15.80155680    18
CTC1_L_00016002-02
1 10005U 23404RQ  26075.70028935  .00000000  00000+0  00000-0 0  9992
2 10005  50.0000  12.0000 0000000   0.0000 102.0000 15.80155680    19
CTC1_L_00016002-03
1 10006U 26522NJ  26075.70028935  .00000000  00000+0  00000-0 0  9997
2 10006  50.0000  12.0000 0000000   0.0000 192.0000 15.80155680    19
CTC1_L_00016002-04
1 10007U 26714O   26075.70028935  .00000000  00000+0  00000-0 0  9991
2 10007  50.0000  12.0000 0000000   0.0000 282.0000 15.80155680    10
CTC1_L_00016003-01
1 10008U 25294AF  26075.70028935  .00000000  00000+0  00000-0 0  9994
2 10008  50.0000  24.0000 0000000   0.0000  24.0000 15.80155680    18
CTC1_L_00016003-02
1 10009U 25593NU  26075.70028935  .00000000  00000+0  00000-0 0  9997
2 10009  50.0000  24.0000 0000000   0.0000 114.0000 15.80155680    19
CTC1_L_00016003-03
1 10010U 22239OU  26075.70028935  .00000000  00000+0  00000-0 0  9993
2 10010  50.0000  24.0000 0000000   0.0000 204.0000 15.80155680    11
CTC1_L_00016003-04
1 10011U 22380IR  26075.70028935  .00000000  00000+0  00000-0 0  9991
2 10011  50.0000  24.0000 0000000   0.0000 294.0000 15.80155680    11
CTC1_L_00016004-01
1 10012U 26222OB  26075.70028935  .00000000  00000+0  00000-0 0  9991
2 10012  50.0000  36.0000 0000000   0.0000  36.0000 15.80155680    19
CTC1_L_00016004-02
1 10013U 23141SU  26075.70028935  .00000000  00000+0  00000-0 0  9999
2 10013  50.0000  36.0000 0000000   0.0000 126.0000 15.80155680    10
CTC1_L_00016004-03
1 10014U 22129P   26075.70028935  .00000000  00000+0  00000-0 0  9995
2 10014  50.0000  36.0000 0000000   0.0000 216.0000 15.80155680    11
CTC1_L_00016004-04
1 10015U 22124ZU  26075.70028935  .00000000  00000+0  00000-0 0  9991
2 10015  50.0000  36.0000 0000000   0.0000 306.0000 15.80155680    12
CTC1_L_00016005-01
1 10016U 22596ZL  26075.70028935  .00000000  00000+0  00000-0 0  9995
2 10016  50.0000  48.0000 0000000   0.0000  48.0000 15.80155680    19
CTC1_L_00016005-02
1 10017U 25562YK  26075.70028935  .00000000  00000+0  00000-0 0  9992
2 10017  50.0000  48.0000 0000000   0.0000 138.0000 15.80155680    10
CTC1_L_00016005-03
1 10018U 22534MK  26075.70028935  .00000000  00000+0  00000-0 0  9999
2 10018  50.0000  48.0000 0000000   0.0000 228.0000 15.80155680    11
CTC1_L_00016005-04
1 10019U 23229NM  26075.70028935  .00000000  00000+0  00000-0 0  9992
2 10019  50.0000  48.0000 0000000   0.0000 318.0000 15.80155680    12
CTC1_L_00016006-01
1 10020U 23318BL  26075.70028935  .00000000  00000+0  00000-0 0  9993
2 10020  50.0000  60.0000 0000000   0.0000  60.0000 15.80155680    12
CTC1_L_00016006-02
1 10021U 25779MD  26075.70028935  .00000000  00000+0  00000-0 0  9997
2 10021  50.0000  60.0000 0000000   0.0000 150.0000 15.80155680    13
CTC1_L_00016006-03
1 10022U 24015QN  26075.70028935  .00000000  00000+0  00000-0 0  9990
2 10022  50.0000  60.0000 0000000   0.0000 240.0000 15.80155680    14
CTC1_L_00016006-04
1 10023U 22618FR  26075.70028935  .00000000  00000+0  00000-0 0  9998
2 10023  50.0000  60.0000 0000000   0.0000 330.0000 15.80155680    15
CTC1_L_00016007-01
1 10024U 24775BZ  26075.70028935  .00000000  00000+0  00000-0 0  9995
2 10024  50.0000  72.0000 0000000   0.0000  72.0000 15.80155680    12
CTC1_L_00016007-02
1 10025U 23345SU  26075.70028935  .00000000  00000+0  00000-0 0  9998
2 10025  50.0000  72.0000 0000000   0.0000 162.0000 15.80155680    13
CTC1_L_00016007-03
1 10026U 24637GU  26075.70028935  .00000000  00000+0  00000-0 0  9994
2 10026  50.0000  72.0000 0000000   0.0000 252.0000 15.80155680    14
CTC1_L_00016007-04
1 10027U 23630HU  26075.70028935  .00000000  00000+0  00000-0 0  9997
2 10027  50.0000  72.0000 0000000   0.0000 342.0000 15.80155680    15
CTC1_L_00016008-01
1 10028U 25100DZ  26075.70028935  .00000000  00000+0  00000-0 0  9992
2 10028  50.0000  84.0000 0000000   0.0000  84.0000 15.80155680    12
CTC1_L_00016008-02
1 10029U 26028ZA  26075.70028935  .00000000  00000+0  00000-0 0  9993
2 10029  50.0000  84.0000 0000000   0.0000 174.0000 15.80155680    13
CTC1_L_00016008-03
1 10030U 26121BM  26075.70028935  .00000000  00000+0  00000-0 0  9999
2 10030  50.0000  84.0000 0000000   0.0000 264.0000 15.80155680    15
CTC1_L_00016008-04
1 10031U 24208YL  26075.70028935  .00000000  00000+0  00000-0 0  9994
2 10031  50.0000  84.0000 0000000   0.0000 354.0000 15.80155680    16
CTC1_L_00016009-01
1 10032U 22427HR  26075.70028935  .00000000  00000+0  00000-0 0  9996
2 10032  50.0000  96.0000 0000000   0.0000  96.0000 15.80155680    13
CTC1_L_00016009-02
1 10033U 24812M   26075.70028935  .00000000  00000+0  00000-0 0  9997
2 10033  50.0000  96.0000 0000000   0.0000 186.0000 15.80155680    14
CTC1_L_00016009-03
1 10034U 25398PA  26075.70028935  .00000000  00000+0  00000-0 0  9998
2 10034  50.0000  96.0000 0000000   0.0000 276.0000 15.80155680    15
CTC1_L_00016009-04
1 10035U 25631DT  26075.70028935  .00000000  00000+0  00000-0 0  9999
2 10035  50.0000  96.0000 0000000   0.0000   6.0000 15.80155680    17
CTC1_L_00016010-01
1 10036U 26179VW  26075.70028935  .00000000  00000+0  00000-0 0  9998
2 10036  50.0000 108.0000 0000000   0.0000 108.0000 15.80155680    15
CTC1_L_00016010-02
1 10037U 23260CB  26075.70028935  .00000000  00000+0  00000-0 0  9997
2 10037  50.0000 108.0000 0000000   0.0000 198.0000 15.80155680    15
CTC1_L_00016010-03
1 10038U 24570GI  26075.70028935  .00000000  00000+0  00000-0 0  9993
2 10038  50.0000 108.0000 0000000   0.0000 288.0000 15.80155680    16
CTC1_L_00016010-04
1 10039U 22490WY  26075.70028935  .00000000  00000+0  00000-0 0  9993
2 10039  50.0000 108.0000 0000000   0.0000  18.0000 15.80155680    18
CTC1_L_00016011-01
1 10040U 24635AP  26075.70028935  .00000000  00000+0  00000-0 0  9998
2 10040  50.0000 120.0000 0000000   0.0000 120.0000 15.80155680    18
CTC1_L_00016011-02
1 10041U 26536X   26075.70028935  .00000000  00000+0  00000-0 0  9991
2 10041  50.0000 120.0000 0000000   0.0000 210.0000 15.80155680    19
CTC1_L_00016011-03
1 10042U 24311SE  26075.70028935  .00000000  00000+0  00000-0 0  9991
2 10042  50.0000 120.0000 0000000   0.0000 300.0000 15.80155680    10
CTC1_L_00016011-04
1 10043U 23661GW  26075.70028935  .00000000  00000+0  00000-0 0  9999
2 10043  50.0000 120.0000 0000000   0.0000  30.0000 15.80155680    11
CTC1_L_00016012-01
1 10044U 23124BQ  26075.70028935  .00000000  00000+0  00000-0 0  9994
2 10044  50.0000 132.0000 0000000   0.0000 132.0000 15.80155680    18
CTC1_L_00016012-02
1 10045U 23194KG  26075.70028935  .00000000  00000+0  00000-0 0  9992
2 10045  50.0000 132.0000 0000000   0.0000 222.0000 15.80155680    19
CTC1_L_00016012-03
1 10046U 24478ME  26075.70028935  .00000000  00000+0  00000-0 0  9999
2 10046  50.0000 132.0000 0000000   0.0000 312.0000 15.80155680    10
CTC1_L_00016012-04
1 10047U 23408RP  26075.70028935  .00000000  00000+0  00000-0 0  9992
2 10047  50.0000 132.0000 0000000   0.0000  42.0000 15.80155680    11
CTC1_L_00016013-01
1 10048U 22964GG  26075.70028935  .00000000  00000+0  00000-0 0  9999
2 10048  50.0000 144.0000 0000000   0.0000 144.0000 15.80155680    18
CTC1_L_00016013-02
1 10049U 24392NU  26075.70028935  .00000000  00000+0  00000-0 0  9997
2 10049  50.0000 144.0000 0000000   0.0000 234.0000 15.80155680    19
CTC1_L_00016013-03
1 10050U 25050TM  26075.70028935  .00000000  00000+0  00000-0 0  9991
2 10050  50.0000 144.0000 0000000   0.0000 324.0000 15.80155680    11
CTC1_L_00016013-04
1 10051U 25341ZA  26075.70028935  .00000000  00000+0  00000-0 0  9995
2 10051  50.0000 144.0000 0000000   0.0000  54.0000 15.80155680    12
CTC1_L_00016014-01
1 10052U 22548D   26075.70028935  .00000000  00000+0  00000-0 0  9992
2 10052  50.0000 156.0000 0000000   0.0000 156.0000 15.80155680    19
CTC1_L_00016014-02
1 10053U 22587JJ  26075.70028935  .00000000  00000+0  00000-0 0  9996
2 10053  50.0000 156.0000 0000000   0.0000 246.0000 15.80155680    10
CTC1_L_00016014-03
1 10054U 26844VB  26075.70028935  .00000000  00000+0  00000-0 0  9997
2 10054  50.0000 156.0000 0000000   0.0000 336.0000 15.80155680    11
CTC1_L_00016014-04
1 10055U 24821BE  26075.70028935  .00000000  00000+0  00000-0 0  9991
2 10055  50.0000 156.0000 0000000   0.0000  66.0000 15.80155680    12
CTC1_L_00016015-01
1 10056U 22572KS  26075.70028935  .00000000  00000+0  00000-0 0  9993
2 10056  50.0000 168.0000 0000000   0.0000 168.0000 15.80155680    19
CTC1_L_00016015-02
1 10057U 24750OF  26075.70028935  .00000000  00000+0  00000-0 0  9994
2 10057  50.0000 168.0000 0000000   0.0000 258.0000 15.80155680    10
CTC1_L_00016015-03
1 10058U 24711ZF  26075.70028935  .00000000  00000+0  00000-0 0  9992
2 10058  50.0000 168.0000 0000000   0.0000 348.0000 15.80155680    11
CTC1_L_00016015-04
1 10059U 25186WW  26075.70028935  .00000000  00000+0  00000-0 0  9990
2 10059  50.0000 168.0000 0000000   0.0000  78.0000 15.80155680    12
CTC1_L_00016016-01
1 10060U 24518S   26075.70028935  .00000000  00000+0  00000-0 0  9990
2 10060  50.0000 180.0000 0000000   0.0000 180.0000 15.80155680    12
CTC1_L_00016016-02
1 10061U 23259AQ  26075.70028935  .00000000  00000+0  00000-0 0  9992
2 10061  50.0000 180.0000 0000000   0.0000 270.0000 15.80155680    13
